ORBCOMM-X               
1 21576U 91050C   24200.77590386  .00000978  00000+0  30748-3 0  9997
2 21576  98.3882 267.4905 0004862 109.8823 250.2891 14.42596890734037
ORBCOMM FM01            
1 23545U 95017A   24200.95548255  .00012940  00000+0  16709-2 0  9992
2 23545  69.9653 179.8669 0003228 142.5717 217.5659 14.81094325563003
ORBCOMM FM02            
1 23546U 95017B   24201.20403719  .00012700  00000+0  16529-2 0  9991
2 23546  69.9665 198.7910 0004468 119.0193 241.1405 14.80766362562984
ORBCOMM FM08            
1 25112U 97084A   24200.91727692  .00004778  00000+0  14560-2 0  9993
2 25112  45.0124 164.5591 0008648 357.4222   2.6582 14.42952451393185
ORBCOMM FM10            
1 25113U 97084B   24200.85982861  .00004795  00000+0  14644-2 0  9990
2 25113  45.0136 166.7504 0006804 331.8026  28.2455 14.42847212568328
ORBCOMM FM11            
1 25114U 97084C   24200.88468694  .00004695  00000+0  14384-2 0  9997
2 25114  45.0121 166.7598 0007572 332.1477  27.8967 14.42713075393297
ORBCOMM FM12            
1 25115U 97084D   24200.91550794  .00004119  00000+0  12684-2 0  9997
2 25115  45.0129 166.3323 0006591 332.0196  28.0299 14.42674230393093
ORBCOMM FM09            
1 25116U 97084E   24200.85931970  .00004315  00000+0  13276-2 0  9996
2 25116  45.0131 167.3089 0007719 320.7789  39.2501 14.42637286393294
